0 ARIANE 5 R/B
1 38333U 12023C   13280.79553224  .00001867  00000-0  73349-3 0  2779
2 38333 001.3302 210.3985 7254778 210.9307 073.2935 02.30731116 11725
0 ARIANE 5 R/B
1 38333U 12023C   13282.52450266  .00002096  00000-0  75527-3 0  2780
2 38333 001.3255 209.4521 7254989 212.6026 069.4431 02.30741875 11763
0 ARIANE 5 R/B
1 38333U 12023C   13285.11822001  .00002416  00000-0  82092-3 0  2790
2 38333 001.3199 208.0159 7255417 215.1280 064.0094 02.30751188 11820
0 ARIANE 5 R/B
1 38333U 12023C   13287.28036199  .00002973  00000-0  10351-2 0  2803
2 38333 001.3151 206.8460 7255817 217.2058 060.1454 02.30759598 11874
0 ARIANE 5 R/B
1 38333U 12023C   13289.01046286  .00002535  00000-0  92394-3 0  2817
2 38333 001.3112 205.9111 7256111 218.8661 057.4130 02.30770037 11915
0 ARIANE 5 R/B
1 38333U 12023C   13291.17314918  .00002762  00000-0  10264-2 0  2825
2 38333 001.3069 204.7121 7256411 220.9739 054.1442 02.30782131 11960
0 ARIANE 5 R/B
1 38333U 12023C   13293.33572611  .00003100  00000-0  11120-2 0  2831
2 38333 001.3024 203.4937 7256751 223.1023 050.8794 02.30794780 12013
0 ARIANE 5 R/B
1 38333U 12023C   13293.76828751  .00002879  00000-0  10314-2 0  2844
2 38333 001.3015 203.2751 7256798 223.5032 050.2643 02.30800226 12021
